*******************************************************************************
 Revised: July 31, 2013                  Sun                                 10

 PHYSICAL PROPERTIES (updated 2024-Oct-30):
  GM, km^3/s^2          = 132712440041.93938  Mass, 10^24 kg        = ~1988410
  Vol. mean radius, km  = 695700              Volume, 10^12 km^3    = 1412000
  Solar radius (IAU2015)= 695700 km           Mean density, g/cm^3  = 1.408
  Radius (photosphere)  = 696500 km           Angular diam at 1 AU  = 1919.3"
  Photosphere temp., K  = 6600 (bottom)       Photosphere temp., K  = 4400(top)
  Photospheric depth    = ~500 km             Chromospheric depth   = ~2500 km
  Flatness, f           = 0.00005             Adopted sid. rot. per.= 25.38 d
  Surface gravity       =  274.0 m/s^2        Escape speed, km/s    =  617.7
  Pole (RA,DEC), deg.   = (286.13, 63.87)     Obliquity to ecliptic = 7.25 deg.
  Solar constant (1 AU) = 1367.6 W/m^2        Luminosity, 10^24 J/s = 382.8
  Mass-energy conv rate = 4.260 x 10^9 kg/s   Effective temp, K     = 5772
  Sunspot cycle         = 11.4 yr             Cycle 24 sunspot min. = 2008 A.D.

  Motion relative to nearby stars = apex : R.A.= 271 deg.; DEC.= +30 deg.
                                    speed: 19.4 km/s (0.0112 au/day)
  Motion relative to 2.73K BB/CBR = apex : l= 264.7 +- 0.8; b= 48.2 +- 0.5 deg.
                                    speed: 369 +-11 km/s
*******************************************************************************


*******************************************************************************
Ephemeris / WWW_USER Sun Dec 14 09:53:39 2025 Pasadena, USA      / Horizons
*******************************************************************************
Target body name: Sun (10)                        {source: DE441}
Center body name: Solar System Barycenter (0)     {source: DE441}
Center-site name: BODY CENTER
*******************************************************************************
Start time      : A.D. 2015-Jan-02 00:00:00.0000 TDB
Stop  time      : A.D. 2015-Apr-29 00:00:00.0000 TDB
Step-size       : 60 minutes
*******************************************************************************
Center geodetic : 0.0, 0.0, 0.0                   {E-lon(deg),Lat(deg),Alt(km)}
Center cylindric: 0.0, 0.0, 0.0                   {E-lon(deg),Dxy(km),Dz(km)}
Center radii    : (undefined)
Output units    : KM-S
Calendar mode   : Mixed Julian/Gregorian
Output type     : GEOMETRIC cartesian states
Output format   : 3 (position, velocity, LT, range, range-rate)
Reference frame : Ecliptic of J2000.0
*******************************************************************************
            JDTDB,            Calendar Date (TDB),                      X,                      Y,                      Z,                     VX,                     VY,                     VZ,                     LT,                     RG,                     RR,
**************************************************************************************************************************************************************************************************************************************************************************
$$SOE
2457041.166666667, A.D. 2015-Jan-18 16:00:00.0000,  4.352658206642899E+05, -1.139799915098148E+05, -2.076777610675623E+04,  6.693209854027746E-03,  9.271052660780064E-03, -1.670409237388122E-04,  1.502442719852594E+00,  4.504209959888144E+05,  4.129647732895664E-03,
2457041.208333333, A.D. 2015-Jan-18 17:00:00.0000,  4.352899153960241E+05, -1.139466147911148E+05, -2.076837744253345E+04,  6.692752192042241E-03,  9.271568865987716E-03, -1.670345045347225E-04,  1.502492311948354E+00,  4.504358633250999E+05,  4.129983503671584E-03,
2457041.250000000, A.D. 2015-Jan-18 18:00:00.0000,  4.353140084798667E+05, -1.139132362137872E+05, -2.076897875516356E+04,  6.692294358524374E-03,  9.272085231573119E-03, -1.670280642310476E-04,  1.502541908074958E+00,  4.504507318698018E+05,  4.130319075190621E-03,
2457041.291666667, A.D. 2015-Jan-18 19:00:00.0000,  4.353380999151986E+05, -1.138798557772559E+05, -2.076958004457058E+04,  6.691836352625337E-03,  9.272601756838778E-03, -1.670216028087398E-04,  1.502591508230009E+00,  4.504656016222014E+05,  4.130654446853639E-03,
2457041.333333333, A.D. 2015-Jan-18 20:00:00.0000,  4.353621897013978E+05, -1.138464734809472E+05, -2.077018131067843E+04,  6.691378173500693E-03,  9.273118441080813E-03, -1.670151202496670E-04,  1.502641112411102E+00,  4.504804725815785E+05,  4.130989618067011E-03,
2457041.375000000, A.D. 2015-Jan-18 21:00:00.0000,  4.353862778378390E+05, -1.138130893242902E+05, -2.077078255341099E+04,  6.690919820310440E-03,  9.273635283588974E-03, -1.670086165366153E-04,  1.502690720615828E+00,  4.504953447472103E+05,  4.131324588242679E-03,
2457041.416666667, A.D. 2015-Jan-18 22:00:00.0000,  4.354103643238941E+05, -1.137797033067163E+05, -2.077138377269208E+04,  6.690461292219098E-03,  9.274152283646621E-03, -1.670020916532994E-04,  1.502740332841769E+00,  4.505102181183720E+05,  4.131659356798233E-03,
2457041.458333333, A.D. 2015-Jan-18 23:00:00.0000,  4.354344491589321E+05, -1.137463154276597E+05, -2.077198496844547E+04,  6.690002588395765E-03,  9.274669440530733E-03, -1.669955455843599E-04,  1.502789949086500E+00,  4.505250926943366E+05,  4.131993923156972E-03,
2457041.500000000, A.D. 2015-Jan-19 00:00:00.0000,  4.354585323423187E+05, -1.137129256865572E+05, -2.077258614059485E+04,  6.689543708014214E-03,  9.275186753511933E-03, -1.669889783153856E-04,  1.502839569347590E+00,  4.505399684743753E+05,  4.132328286747985E-03,
2457041.541666667, A.D. 2015-Jan-19 01:00:00.0000,  4.354826138734169E+05, -1.136795340828480E+05, -2.077318728906388E+04,  6.689084650252953E-03,  9.275704221854473E-03, -1.669823898329055E-04,  1.502889193622600E+00,  4.505548454577572E+05,  4.132662447006207E-03,
2457041.583333333, A.D. 2015-Jan-19 02:00:00.0000,  4.355066937515867E+05, -1.136461406159743E+05, -2.077378841377617E+04,  6.688625414295304E-03,  9.276221844816258E-03, -1.669757801244002E-04,  1.502938821909086E+00,  4.505697236437491E+05,  4.132996403372492E-03,
2457041.625000000, A.D. 2015-Jan-19 03:00:00.0000,  4.355307719761850E+05, -1.136127452853807E+05, -2.077438951465529E+04,  6.688165999329480E-03,  9.276739621648853E-03, -1.669691491783089E-04,  1.502988454204596E+00,  4.505846030316162E+05,  4.133330155293683E-03,
2457041.666666667, A.D. 2015-Jan-19 04:00:00.0000,  4.355548485465661E+05, -1.135793480905146E+05, -2.077499059162476E+04,  6.687706404548656E-03,  9.277257551597511E-03, -1.669624969840304E-04,  1.503038090506671E+00,  4.505994836206213E+05,  4.133663702222664E-03,
2457041.708333333, A.D. 2015-Jan-19 05:00:00.0000,  4.355789234620811E+05, -1.135459490308263E+05, -2.077559164460807E+04,  6.687246629151048E-03,  9.277775633901177E-03, -1.669558235319344E-04,  1.503087730812846E+00,  4.506143654100255E+05,  4.133997043618445E-03,
2457041.750000000, A.D. 2015-Jan-19 06:00:00.0000,  4.356029967220782E+05, -1.135125481057687E+05, -2.077619267352867E+04,  6.686786672339985E-03,  9.278293867792513E-03, -1.669491288133619E-04,  1.503137375120651E+00,  4.506292483990880E+05,  4.134330178946213E-03,
2457041.791666667, A.D. 2015-Jan-19 07:00:00.0000,  4.356270683259033E+05, -1.134791453147972E+05, -2.077679367830999E+04,  6.686326533323980E-03,  9.278812252497930E-03, -1.669424128206342E-04,  1.503187023427607E+00,  4.506441325870660E+05,  4.134663107677402E-03,
2457041.833333333, A.D. 2015-Jan-19 08:00:00.0000,  4.356511382728986E+05, -1.134457406573706E+05, -2.077739465887545E+04,  6.685866211316808E-03,  9.279330787237592E-03, -1.669356755470532E-04,  1.503236675731231E+00,  4.506590179732148E+05,  4.134995829289746E-03,
2457041.875000000, A.D. 2015-Jan-19 09:00:00.0000,  4.356752065624042E+05, -1.134123341329501E+05, -2.077799561514839E+04,  6.685405705537578E-03,  9.279849471225459E-03, -1.669289169869085E-04,  1.503286332029032E+00,  4.506739045567877E+05,  4.135328343267360E-03,
2457041.916666667, A.D. 2015-Jan-19 10:00:00.0000,  4.356992731937570E+05, -1.133789257409996E+05, -2.077859654705220E+04,  6.684945015210809E-03,  9.280368303669316E-03, -1.669221371354834E-04,  1.503335992318514E+00,  4.506887923370365E+05,  4.135660649100788E-03,
2457041.958333333, A.D. 2015-Jan-19 11:00:00.0000,  4.357233381662913E+05, -1.133455154809864E+05, -2.077919745451021E+04,  6.684484139566496E-03,  9.280887283770788E-03, -1.669153359890522E-04,  1.503385656597174E+00,  4.507036813132108E+05,  4.135992746287058E-03,
2457042.000000000, A.D. 2015-Jan-19 12:00:00.0000,  4.357474014793386E+05, -1.133121033523803E+05, -2.077979833744576E+04,  6.684023077840191E-03,  9.281406410725394E-03, -1.669085135448975E-04,  1.503435324862505E+00,  4.507185714845587E+05,  4.136324634329761E-03,
2457042.041666667, A.D. 2015-Jan-19 13:00:00.0000,  4.357714631322276E+05, -1.132786893546540E+05, -2.078039919578218E+04,  6.683561829273064E-03,  9.281925683722554E-03, -1.669016698012948E-04,  1.503484997111990E+00,  4.507334628503265E+05,  4.136656312739090E-03,
2457042.083333333, A.D. 2015-Jan-19 14:00:00.0000,  4.357955231242842E+05, -1.132452734872832E+05, -2.078100002944277E+04,  6.683100393111994E-03,  9.282445101945659E-03, -1.668948047575396E-04,  1.503534673343111E+00,  4.507483554097583E+05,  4.136987781031919E-03,
2457042.125000000, A.D. 2015-Jan-19 15:00:00.0000,  4.358195814548320E+05, -1.132118557497467E+05, -2.078160083835087E+04,  6.682638768609615E-03,  9.282964664572081E-03, -1.668879184139275E-04,  1.503584353553341E+00,  4.507632491620972E+05,  4.137319038731839E-03,
2457042.166666667, A.D. 2015-Jan-19 16:00:00.0000,  4.358436381231914E+05, -1.131784361415260E+05, -2.078220162242979E+04,  6.682176955024405E-03,  9.283484370773219E-03, -1.668810107717735E-04,  1.503634037740149E+00,  4.507781441065840E+05,  4.137650085369226E-03,
